[
  {
    "OBJECT_NAME": "STARLINK-6316",
    "OBJECT_ID": "23099H",
    "EPOCH": "2025-11-11T00:12:26.376768",
    "MEAN_MOTION": 15.025198,
    "ECCENTRICITY": 0.000113,
    "INCLINATION": 43.0021,
    "RA_OF_ASC_NODE": 173.8761,
    "ARG_OF_PERICENTER": 268.2057,
    "MEAN_ANOMALY": 91.8656,
    "EPHEMERIS_TYPE": 0,
    "CLASSIFICATION_TYPE": "U",
    "NORAD_CAT_ID": 57335,
    "ELEMENT_SET_NO": 999,
    "REV_AT_EPOCH": 12826,
    "BSTAR": 0.00024650000000000003,
    "MEAN_MOTION_DOT": 3.126e-05,
    "MEAN_MOTION_DDOT": 0.0,
    "TLE_LINE1": "1 57335U 23099H   25315.00863862  .00003126  00000+0  24650-3 0  9996",
    "TLE_LINE2": "2 57335  43.0021 173.8761 0001130 268.2057  91.8656 15.02519800128268",
    "COMMENT": "Grouped by shell and plane from TLE"
  },
  {
    "OBJECT_NAME": "STARLINK-6320",
    "OBJECT_ID": "23099J",
    "EPOCH": "2025-11-10T23:29:16.864224",
    "MEAN_MOTION": 15.0253652,
    "ECCENTRICITY": 0.0001141,
    "INCLINATION": 43.0022,
    "RA_OF_ASC_NODE": 173.6319,
    "ARG_OF_PERICENTER": 277.679,
    "MEAN_ANOMALY": 82.3923,
    "EPHEMERIS_TYPE": 0,
    "CLASSIFICATION_TYPE": "U",
    "NORAD_CAT_ID": 57336,
    "ELEMENT_SET_NO": 999,
    "REV_AT_EPOCH": 12826,
    "BSTAR": 4.8733e-05,
    "MEAN_MOTION_DOT": 4.55e-06,
    "MEAN_MOTION_DDOT": 0.0,
    "TLE_LINE1": "1 57336U 23099J   25314.97866741  .00000455  00000+0  48733-4 0  9992",
    "TLE_LINE2": "2 57336  43.0022 173.6319 0001141 277.6790  82.3923 15.02536520128267",
    "COMMENT": "Grouped by shell and plane from TLE"
  },
  {
    "OBJECT_NAME": "STARLINK-6322",
    "OBJECT_ID": "23099K",
    "EPOCH": "2025-11-11T00:23:37.512960",
    "MEAN_MOTION": 15.02534098,
    "ECCENTRICITY": 0.0001192,
    "INCLINATION": 43.0021,
    "RA_OF_ASC_NODE": 173.9299,
    "ARG_OF_PERICENTER": 268.3109,
    "MEAN_ANOMALY": 91.7597,
    "EPHEMERIS_TYPE": 0,
    "CLASSIFICATION_TYPE": "U",
    "NORAD_CAT_ID": 57337,
    "ELEMENT_SET_NO": 999,
    "REV_AT_EPOCH": 12826,
    "BSTAR": 4.3529e-05,
    "MEAN_MOTION_DOT": 3.84e-06,
    "MEAN_MOTION_DDOT": 0.0,
    "TLE_LINE1": "1 57337U 23099K   25315.01640640  .00000384  00000+0  43529-4 0  9996",
    "TLE_LINE2": "2 57337  43.0021 173.9299 0001192 268.3109  91.7597 15.02534098128263",
    "COMMENT": "Grouped by shell and plane from TLE"
  },
  {
    "OBJECT_NAME": "STARLINK-6374",
    "OBJECT_ID": "23099L",
    "EPOCH": "2025-11-11T00:17:13.805376",
    "MEAN_MOTION": 15.0253472,
    "ECCENTRICITY": 0.0001198,
    "INCLINATION": 43.0011,
    "RA_OF_ASC_NODE": 173.8932,
    "ARG_OF_PERICENTER": 262.8513,
    "MEAN_ANOMALY": 97.2193,
    "EPHEMERIS_TYPE": 0,
    "CLASSIFICATION_TYPE": "U",
    "NORAD_CAT_ID": 57338,
    "ELEMENT_SET_NO": 999,
    "REV_AT_EPOCH": 12826,
    "BSTAR": 5.2702000000000005e-05,
    "MEAN_MOTION_DOT": 5.08e-06,
    "MEAN_MOTION_DDOT": 0.0,
    "TLE_LINE1": "1 57338U 23099L   25315.01196534  .00000508  00000+0  52702-4 0  9996",
    "TLE_LINE2": "2 57338  43.0011 173.8932 0001198 262.8513  97.2193 15.02534720128265",
    "COMMENT": "Grouped by shell and plane from TLE"
  },
  {
    "OBJECT_NAME": "STARLINK-6332",
    "OBJECT_ID": "23099M",
    "EPOCH": "2025-11-11T00:26:49.079040",
    "MEAN_MOTION": 15.0254092,
    "ECCENTRICITY": 0.0001003,
    "INCLINATION": 43.0022,
    "RA_OF_ASC_NODE": 173.9458,
    "ARG_OF_PERICENTER": 270.8078,
    "MEAN_ANOMALY": 89.2649,
    "EPHEMERIS_TYPE": 0,
    "CLASSIFICATION_TYPE": "U",
    "NORAD_CAT_ID": 57339,
    "ELEMENT_SET_NO": 999,
    "REV_AT_EPOCH": 12826,
    "BSTAR": 0.00010850000000000001,
    "MEAN_MOTION_DOT": 1.263e-05,
    "MEAN_MOTION_DDOT": 0.0,
    "TLE_LINE1": "1 57339U 23099M   25315.01862360  .00001263  00000+0  10850-3 0  9990",
    "TLE_LINE2": "2 57339  43.0022 173.9458 0001003 270.8078  89.2649 15.02540920128268",
    "COMMENT": "Grouped by shell and plane from TLE"
  },
  {
    "OBJECT_NAME": "STARLINK-6321",
    "OBJECT_ID": "23099N",
    "EPOCH": "2025-11-10T23:59:38.864832",
    "MEAN_MOTION": 15.02540765,
    "ECCENTRICITY": 0.0001203,
    "INCLINATION": 43.0029,
    "RA_OF_ASC_NODE": 173.8036,
    "ARG_OF_PERICENTER": 272.378,
    "MEAN_ANOMALY": 87.6925,
    "EPHEMERIS_TYPE": 0,
    "CLASSIFICATION_TYPE": "U",
    "NORAD_CAT_ID": 57340,
    "ELEMENT_SET_NO": 999,
    "REV_AT_EPOCH": 12826,
    "BSTAR": 0.00016325,
    "MEAN_MOTION_DOT": 2.002e-05,
    "MEAN_MOTION_DDOT": 0.0,
    "TLE_LINE1": "1 57340U 23099N   25314.99975538  .00002002  00000+0  16325-3 0  9995",
    "TLE_LINE2": "2 57340  43.0029 173.8036 0001203 272.3780  87.6925 15.02540765128263",
    "COMMENT": "Grouped by shell and plane from TLE"
  },
  {
    "OBJECT_NAME": "STARLINK-6377",
    "OBJECT_ID": "23099P",
    "EPOCH": "2025-11-11T00:07:38.367552",
    "MEAN_MOTION": 15.02538785,
    "ECCENTRICITY": 0.0001141,
    "INCLINATION": 43.0035,
    "RA_OF_ASC_NODE": 173.8443,
    "ARG_OF_PERICENTER": 275.1744,
    "MEAN_ANOMALY": 84.8968,
    "EPHEMERIS_TYPE": 0,
    "CLASSIFICATION_TYPE": "U",
    "NORAD_CAT_ID": 57341,
    "ELEMENT_SET_NO": 999,
    "REV_AT_EPOCH": 12826,
    "BSTAR": 7.9472e-05,
    "MEAN_MOTION_DOT": 8.7e-06,
    "MEAN_MOTION_DDOT": 0.0,
    "TLE_LINE1": "1 57341U 23099P   25315.00530518  .00000870  00000+0  79472-4 0  9998",
    "TLE_LINE2": "2 57341  43.0035 173.8443 0001141 275.1744  84.8968 15.02538785128260",
    "COMMENT": "Grouped by shell and plane from TLE"
  },
  {
    "OBJECT_NAME": "STARLINK-6375",
    "OBJECT_ID": "23099Q",
    "EPOCH": "2025-11-10T23:35:40.615008",
    "MEAN_MOTION": 15.02533847,
    "ECCENTRICITY": 0.0001273,
    "INCLINATION": 43.0033,
    "RA_OF_ASC_NODE": 173.6796,
    "ARG_OF_PERICENTER": 266.6404,
    "MEAN_ANOMALY": 93.4293,
    "EPHEMERIS_TYPE": 0,
    "CLASSIFICATION_TYPE": "U",
    "NORAD_CAT_ID": 57342,
    "ELEMENT_SET_NO": 999,
    "REV_AT_EPOCH": 12826,
    "BSTAR": 7.4532e-05,
    "MEAN_MOTION_DOT": 8.03e-06,
    "MEAN_MOTION_DDOT": 0.0,
    "TLE_LINE1": "1 57342U 23099Q   25314.98310897  .00000803  00000+0  74532-4 0  9999",
    "TLE_LINE2": "2 57342  43.0033 173.6796 0001273 266.6404  93.4293 15.02533847128263",
    "COMMENT": "Grouped by shell and plane from TLE"
  },
  {
    "OBJECT_NAME": "STARLINK-6379",
    "OBJECT_ID": "23099R",
    "EPOCH": "2025-11-10T16:04:13.372608",
    "MEAN_MOTION": 15.02516519,
    "ECCENTRICITY": 0.0001434,
    "INCLINATION": 43.0045,
    "RA_OF_ASC_NODE": 175.6275,
    "ARG_OF_PERICENTER": 261.4007,
    "MEAN_ANOMALY": 98.6673,
    "EPHEMERIS_TYPE": 0,
    "CLASSIFICATION_TYPE": "U",
    "NORAD_CAT_ID": 57343,
    "ELEMENT_SET_NO": 999,
    "REV_AT_EPOCH": 12821,
    "BSTAR": 9.526e-05,
    "MEAN_MOTION_DOT": 1.083e-05,
    "MEAN_MOTION_DDOT": 0.0,
    "TLE_LINE1": "1 57343U 23099R   25314.66959922  .00001083  00000+0  95260-4 0  9995",
    "TLE_LINE2": "2 57343  43.0045 175.6275 0001434 261.4007  98.6673 15.02516519128213",
    "COMMENT": "Grouped by shell and plane from TLE"
  },
  {
    "OBJECT_NAME": "STARLINK-6380",
    "OBJECT_ID": "23099S",
    "EPOCH": "2025-11-10T23:50:03.442560",
    "MEAN_MOTION": 15.02539848,
    "ECCENTRICITY": 0.0001112,
    "INCLINATION": 43.0032,
    "RA_OF_ASC_NODE": 173.7528,
    "ARG_OF_PERICENTER": 268.1263,
    "MEAN_ANOMALY": 91.9452,
    "EPHEMERIS_TYPE": 0,
    "CLASSIFICATION_TYPE": "U",
    "NORAD_CAT_ID": 57344,
    "ELEMENT_SET_NO": 999,
    "REV_AT_EPOCH": 12826,
    "BSTAR": 9.0201e-05,
    "MEAN_MOTION_DOT": 1.015e-05,
    "MEAN_MOTION_DDOT": 0.0,
    "TLE_LINE1": "1 57344U 23099S   25314.99309540  .00001015  00000+0  90201-4 0  9992",
    "TLE_LINE2": "2 57344  43.0032 173.7528 0001112 268.1263  91.9452 15.02539848128267",
    "COMMENT": "Grouped by shell and plane from TLE"
  },
  {
    "OBJECT_NAME": "STARLINK-6373",
    "OBJECT_ID": "23099T",
    "EPOCH": "2025-11-10T23:54:51.544224",
    "MEAN_MOTION": 15.02543023,
    "ECCENTRICITY": 0.000138,
    "INCLINATION": 43.0021,
    "RA_OF_ASC_NODE": 173.7799,
    "ARG_OF_PERICENTER": 248.4237,
    "MEAN_ANOMALY": 111.6458,
    "EPHEMERIS_TYPE": 0,
    "CLASSIFICATION_TYPE": "U",
    "NORAD_CAT_ID": 57345,
    "ELEMENT_SET_NO": 999,
    "REV_AT_EPOCH": 12826,
    "BSTAR": 0.0,
    "MEAN_MOTION_DOT": -1.007e-05,
    "MEAN_MOTION_DDOT": 0.0,
    "TLE_LINE1": "1 57345U 23099T   25314.99642991 -.00001007  00000+0 -59449-4 0  9995",
    "TLE_LINE2": "2 57345  43.0021 173.7799 0001380 248.4237 111.6458 15.02543023128261",
    "COMMENT": "Grouped by shell and plane from TLE"
  },
  {
    "OBJECT_NAME": "STARLINK-6359",
    "OBJECT_ID": "23099U",
    "EPOCH": "2025-11-10T23:26:05.597952",
    "MEAN_MOTION": 15.0254466,
    "ECCENTRICITY": 9.13e-05,
    "INCLINATION": 43.002,
    "RA_OF_ASC_NODE": 173.6261,
    "ARG_OF_PERICENTER": 295.0366,
    "MEAN_ANOMALY": 65.0381,
    "EPHEMERIS_TYPE": 0,
    "CLASSIFICATION_TYPE": "U",
    "NORAD_CAT_ID": 57346,
    "ELEMENT_SET_NO": 999,
    "REV_AT_EPOCH": 12826,
    "BSTAR": 0.0,
    "MEAN_MOTION_DOT": -6.95e-06,
    "MEAN_MOTION_DDOT": 0.0,
    "TLE_LINE1": "1 57346U 23099U   25314.97645368 -.00000695  00000+0 -36369-4 0  9993",
    "TLE_LINE2": "2 57346  43.0020 173.6261 0000913 295.0366  65.0381 15.02544660128261",
    "COMMENT": "Grouped by shell and plane from TLE"
  },
  {
    "OBJECT_NAME": "STARLINK-6378",
    "OBJECT_ID": "23099V",
    "EPOCH": "2025-11-10T23:43:40.704384",
    "MEAN_MOTION": 15.02532278,
    "ECCENTRICITY": 6.49e-05,
    "INCLINATION": 43.0007,
    "RA_OF_ASC_NODE": 173.7207,
    "ARG_OF_PERICENTER": 296.7264,
    "MEAN_ANOMALY": 63.3512,
    "EPHEMERIS_TYPE": 0,
    "CLASSIFICATION_TYPE": "U",
    "NORAD_CAT_ID": 57347,
    "ELEMENT_SET_NO": 999,
    "REV_AT_EPOCH": 12826,
    "BSTAR": 6.7614e-05,
    "MEAN_MOTION_DOT": 7.1e-06,
    "MEAN_MOTION_DDOT": 0.0,
    "TLE_LINE1": "1 57347U 23099V   25314.98866556  .00000710  00000+0  67614-4 0  9992",
    "TLE_LINE2": "2 57347  43.0007 173.7207 0000649 296.7264  63.3512 15.02532278128268",
    "COMMENT": "Grouped by shell and plane from TLE"
  }
]